HIMAWARI-8              
1 40267U 14060A   23346.57063088 -.00000248  00000+0  00000+0 0  9998
2 40267   0.0161 257.4448 0000654  43.3533 126.2898  1.00270955 33550
